{
  "type": "FeatureCollection",
  "features": [
    {
      "type": "Feature",
      "properties": {
        "norad_id": 36711,
        "name": "FENGYUN 1C DEB",
        "group": "fengyun-1c-debris",
        "lat": 70.62263783826424,
        "lon": -133.49459225923334,
        "alt_km": 737.0535069725975,
        "timestamp": "2025-12-18T17:50:15.245251+00:00",
        "meta_object_name": "FENGYUN 1C DEB",
        "meta_object_id": "1999-025EAH",
        "meta_epoch": "2025-12-15T19:25:24.600864",
        "meta_mean_motion": 14.42474443,
        "meta_eccentricity": 0.01001739,
        "meta_inclination": 100.8044,
        "meta_ra_of_asc_node": 9.912,
        "meta_arg_of_pericenter": 199.8566,
        "meta_mean_anomaly": 159.8704,
        "meta_ephemeris_type": 0,
        "meta_classification_type": "U",
        "meta_norad_cat_id": 36711,
        "meta_element_set_no": 999,
        "meta_rev_at_epoch": 64355,
        "meta_bstar": 0.0014307525,
        "meta_mean_motion_dot": 4.969e-05,
        "meta_mean_motion_ddot": 0,
        "tle_line1": "1 36711U 99025EAH 25349.80931251  .00004969  00000+0  14308-2 0  9990",
        "tle_line2": "2 36711 100.8044   9.9120 0100173 199.8566 159.8704 14.42474443643558"
      },
      "geometry": {
        "type": "Point",
        "coordinates": [
          -133.49459225923334,
          70.62263783826424
        ]
      }
    },
    {
      "type": "Feature",
      "properties": {
        "norad_id": 36716,
        "name": "FENGYUN 1C DEB",
        "group": "fengyun-1c-debris",
        "lat": 58.73374135414678,
        "lon": -103.80101419501825,
        "alt_km": 1024.280044012602,
        "timestamp": "2025-12-18T17:50:15.245261+00:00",
        "meta_object_name": "FENGYUN 1C DEB",
        "meta_object_id": "1999-025EAN",
        "meta_epoch": "2025-12-18T00:14:45.593952",
        "meta_mean_motion": 13.8841712,
        "meta_eccentricity": 0.01481792,
        "meta_inclination": 99.2289,
        "meta_ra_of_asc_node": 271.0046,
        "meta_arg_of_pericenter": 214.5801,
        "meta_mean_anomaly": 144.565,
        "meta_ephemeris_type": 0,
        "meta_classification_type": "U",
        "meta_norad_cat_id": 36716,
        "meta_element_set_no": 999,
        "meta_rev_at_epoch": 63004,
        "meta_bstar": 0.00018188182,
        "meta_mean_motion_dot": 1.93e-06,
        "meta_mean_motion_ddot": 0,
        "tle_line1": "1 36716U 99025EAN 25352.01024993  .00000193  00000+0  18188-3 0  9994",
        "tle_line2": "2 36716  99.2289 271.0046 0148179 214.5801 144.5650 13.88417120630048"
      },
      "geometry": {
        "type": "Point",
        "coordinates": [
          -103.80101419501825,
          58.73374135414678
        ]
      }
    },
    {
      "type": "Feature",
      "properties": {
        "norad_id": 36724,
        "name": "FENGYUN 1C DEB",
        "group": "fengyun-1c-debris",
        "lat": 4.672833999639816,
        "lon": 24.170088958237972,
        "alt_km": 883.9915103546145,
        "timestamp": "2025-12-18T17:50:15.245271+00:00",
        "meta_object_name": "FENGYUN 1C DEB",
        "meta_object_id": "1999-025EAW",
        "meta_epoch": "2025-12-18T01:06:38.664576",
        "meta_mean_motion": 14.25328701,
        "meta_eccentricity": 0.01037205,
        "meta_inclination": 99.4675,
        "meta_ra_of_asc_node": 24.1999,
        "meta_arg_of_pericenter": 182.8224,
        "meta_mean_anomaly": 207.9026,
        "meta_ephemeris_type": 0,
        "meta_classification_type": "U",
        "meta_norad_cat_id": 36724,
        "meta_element_set_no": 999,
        "meta_rev_at_epoch": 57548,
        "meta_bstar": 0.0014303066,
        "meta_mean_motion_dot": 3.515e-05,
        "meta_mean_motion_ddot": 0,
        "tle_line1": "1 36724U 99025EAW 25352.04628084  .00003515  00000+0  14303-2 0  9992",
        "tle_line2": "2 36724  99.4675  24.1999 0103720 182.8224 207.9026 14.25328701575486"
      },
      "geometry": {
        "type": "Point",
        "coordinates": [
          24.170088958237972,
          4.672833999639816
        ]
      }
    },
    {
      "type": "Feature",
      "properties": {
        "norad_id": 36729,
        "name": "FENGYUN 1C DEB",
        "group": "fengyun-1c-debris",
        "lat": 79.96154524754249,
        "lon": -145.6696574619592,
        "alt_km": 877.323586649055,
        "timestamp": "2025-12-18T17:50:15.245281+00:00",
        "meta_object_name": "FENGYUN 1C DEB",
        "meta_object_id": "1999-025EBB",
        "meta_epoch": "2025-12-16T04:05:17.827872",
        "meta_mean_motion": 14.10320494,
        "meta_eccentricity": 0.00453471,
        "meta_inclination": 98.708,
        "meta_ra_of_asc_node": 331.8661,
        "meta_arg_of_pericenter": 246.1932,
        "meta_mean_anomaly": 113.4481,
        "meta_ephemeris_type": 0,
        "meta_classification_type": "U",
        "meta_norad_cat_id": 36729,
        "meta_element_set_no": 999,
        "meta_rev_at_epoch": 87300,
        "meta_bstar": 0.00030652739,
        "meta_mean_motion_dot": 5.06e-06,
        "meta_mean_motion_ddot": 0,
        "tle_line1": "1 36729U 99025EBB 25350.17034523  .00000506  00000+0  30653-3 0  9992",
        "tle_line2": "2 36729  98.7080 331.8661 0045347 246.1932 113.4481 14.10320494873007"
      },
      "geometry": {
        "type": "Point",
        "coordinates": [
          -145.6696574619592,
          79.96154524754249
        ]
      }
    },
    {
      "type": "Feature",
      "properties": {
        "norad_id": 36734,
        "name": "FENGYUN 1C DEB",
        "group": "fengyun-1c-debris",
        "lat": -11.371915435209448,
        "lon": -142.0012768736645,
        "alt_km": 783.9908447322241,
        "timestamp": "2025-12-18T17:50:15.245291+00:00",
        "meta_object_name": "FENGYUN 1C DEB",
        "meta_object_id": "1999-025EBG",
        "meta_epoch": "2025-12-18T01:47:05.053056",
        "meta_mean_motion": 14.25897297,
        "meta_eccentricity": 0.00364903,
        "meta_inclination": 99.0559,
        "meta_ra_of_asc_node": 39.1461,
        "meta_arg_of_pericenter": 204.3184,
        "meta_mean_anomaly": 155.6274,
        "meta_ephemeris_type": 0,
        "meta_classification_type": "U",
        "meta_norad_cat_id": 36734,
        "meta_element_set_no": 999,
        "meta_rev_at_epoch": 82810,
        "meta_bstar": 0.0013415374,
        "meta_mean_motion_dot": 3.171e-05,
        "meta_mean_motion_ddot": 0,
        "tle_line1": "1 36734U 99025EBG 25352.07436404  .00003171  00000+0  13415-2 0  9990",
        "tle_line2": "2 36734  99.0559  39.1461 0036490 204.3184 155.6274 14.25897297828103"
      },
      "geometry": {
        "type": "Point",
        "coordinates": [
          -142.0012768736645,
          -11.371915435209448
        ]
      }
    },
    {
      "type": "Feature",
      "properties": {
        "norad_id": 36736,
        "name": "FENGYUN 1C DEB",
        "group": "fengyun-1c-debris",
        "lat": -75.09098944730177,
        "lon": 101.83847299578282,
        "alt_km": 854.8830964466406,
        "timestamp": "2025-12-18T17:50:15.245302+00:00",
        "meta_object_name": "FENGYUN 1C DEB",
        "meta_object_id": "1999-025EBJ",
        "meta_epoch": "2025-12-17T11:53:03.561504",
        "meta_mean_motion": 14.25503808,
        "meta_eccentricity": 0.00608931,
        "meta_inclination": 98.8065,
        "meta_ra_of_asc_node": 64.9763,
        "meta_arg_of_pericenter": 126.7147,
        "meta_mean_anomaly": 233.9647,
        "meta_ephemeris_type": 0,
        "meta_classification_type": "U",
        "meta_norad_cat_id": 36736,
        "meta_element_set_no": 999,
        "meta_rev_at_epoch": 88683,
        "meta_bstar": 0.0013401294,
        "meta_mean_motion_dot": 3.186e-05,
        "meta_mean_motion_ddot": 0,
        "tle_line1": "1 36736U 99025EBJ 25351.49518011  .00003186  00000+0  13401-2 0  9993",
        "tle_line2": "2 36736  98.8065  64.9763 0060893 126.7147 233.9647 14.25503808886835"
      },
      "geometry": {
        "type": "Point",
        "coordinates": [
          101.83847299578282,
          -75.09098944730177
        ]
      }
    },
    {
      "type": "Feature",
      "properties": {
        "norad_id": 36743,
        "name": "FENGYUN 1C DEB",
        "group": "fengyun-1c-debris",
        "lat": 30.06415097144201,
        "lon": 35.90859102330396,
        "alt_km": 765.4094663023334,
        "timestamp": "2025-12-18T17:50:15.245312+00:00",
        "meta_object_name": "FENGYUN 1C DEB",
        "meta_object_id": "1999-025EBR",
        "meta_epoch": "2025-12-15T20:48:16.336800",
        "meta_mean_motion": 14.29116099,
        "meta_eccentricity": 0.0047177,
        "meta_inclination": 98.6557,
        "meta_ra_of_asc_node": 38.1117,
        "meta_arg_of_pericenter": 3.5743,
        "meta_mean_anomaly": 356.5766,
        "meta_ephemeris_type": 0,
        "meta_classification_type": "U",
        "meta_norad_cat_id": 36743,
        "meta_element_set_no": 999,
        "meta_rev_at_epoch": 60782,
        "meta_bstar": 0.00095050245,
        "meta_mean_motion_dot": 2.395e-05,
        "meta_mean_motion_ddot": 0,
        "tle_line1": "1 36743U 99025EBR 25349.86685575  .00002395  00000+0  95050-3 0  9991",
        "tle_line2": "2 36743  98.6557  38.1117 0047177   3.5743 356.5766 14.29116099607827"
      },
      "geometry": {
        "type": "Point",
        "coordinates": [
          35.90859102330396,
          30.06415097144201
        ]
      }
    }
  ]
}